{
    "satellites": [
        {
            "name": "starlink373",
            "title": "Starlink-373 (G10-58)",
            "tle": [
                "1 68568C 26070AC  26115.00118056 -.00008292  00000+0 -41960-4 0  1150",
                "2 68568  53.1574 152.4887 0000974 107.1945 323.0466 15.80858169    18"
            ],
            "stdMag": 5,
            "noradId": "68568",
            "intDes": null,
            "tleUrl": "http://celestrak.org/NORAD/elements/supplemental/sup-gp.php?FILE=starlink&FORMAT=tle",
            "launchDate": "2026-04-02T11:55:10.000Z",
            "active": true,
            "batch": [
                {
                    "noradId": "68568",
                    "tle": [
                        "1 68568C 26070AC  26115.00118056 -.00008292  00000+0 -41960-4 0  1150",
                        "2 68568  53.1574 152.4887 0000974 107.1945 323.0466 15.80858169    18"
                    ]
                },
                {
                    "noradId": "68570",
                    "tle": [
                        "1 68570C 26070AE  26114.97618056  .00062803  00000+0  31784-3 0  1140",
                        "2 68570  53.1574 152.6053 0000939  66.9203 225.2413 15.80821361    17"
                    ]
                },
                {
                    "noradId": "68569",
                    "tle": [
                        "1 68569C 26070AD  26115.00673611 -.00008714  00000+0 -44096-4 0  1156",
                        "2 68569  53.1574 152.4695 0001145 105.4298 352.1737 15.80859494    15"
                    ]
                },
                {
                    "noradId": "68567",
                    "tle": [
                        "1 68567C 26070AB  26114.95534722 -.00004599  00000+0 -23277-4 0  1140",
                        "2 68567  53.1576 152.2990 0000996  95.1781 276.6990 15.80855454    19"
                    ]
                },
                {
                    "noradId": "68566",
                    "tle": [
                        "1 68566C 26070AA  26114.88937500 -.00005229  00000+0 -26470-4 0  1141",
                        "2 68566  53.1579 152.6387 0001112 106.9562 244.9796 15.80849449    13"
                    ]
                },
                {
                    "noradId": "68565",
                    "tle": [
                        "1 68565C 26070Z   26114.95604167  .00027877  00000+0  14111-3 0  1147",
                        "2 68565  53.1577 152.3136 0001063 123.9811 243.3137 15.80834301    13"
                    ]
                },
                {
                    "noradId": "68564",
                    "tle": [
                        "1 68564C 26070Y   26114.98243056  .00033613  00000+0  17013-3 0  1144",
                        "2 68564  53.1577 152.1903 0001116 105.0156  48.2777 15.80833299    11"
                    ]
                },
                {
                    "noradId": "68562",
                    "tle": [
                        "1 68562C 26070W   26114.98243056  .00026590  00000+0  13457-3 0  1146",
                        "2 68562  53.1577 152.1991 0001154  76.4598  72.5565 15.80838996    13"
                    ]
                },
                {
                    "noradId": "68563",
                    "tle": [
                        "1 68563C 26070X   26114.88451389 -.00022416  00000+0 -11348-3 0  1148",
                        "2 68563  53.1580 152.6990 0001151 112.9583 194.2070 15.80857517    12"
                    ]
                },
                {
                    "noradId": "68561",
                    "tle": [
                        "1 68561C 26070V   26114.96645833  .00025817  00000+0  13068-3 0  1141",
                        "2 68561  53.1579 152.2969 0000942 104.5305 304.9937 15.80835076    14"
                    ]
                },
                {
                    "noradId": "68560",
                    "tle": [
                        "1 68560C 26070U   26115.00326389  .00061531  00000+0  31213-3 0  1154",
                        "2 68560  53.1578 152.1209 0001201  94.3025 160.6525 15.80771057    10"
                    ]
                },
                {
                    "noradId": "68559",
                    "tle": [
                        "1 68559C 26070T   26114.96298611  .00059017  00000+0  29868-3 0  1140",
                        "2 68559  53.1580 152.3320 0000893  78.3970 302.8103 15.80823531    11"
                    ]
                },
                {
                    "noradId": "68558",
                    "tle": [
                        "1 68558C 26070S   26114.97756944  .00059644  00000+0  30184-3 0  1147",
                        "2 68558  53.1580 152.2676 0000787 112.1356 347.8452 15.80823724    10"
                    ]
                },
                {
                    "noradId": "68557",
                    "tle": [
                        "1 68557C 26070R   26114.98173611  .00037292  00000+0  18872-3 0  1146",
                        "2 68557  53.1581 152.2647 0001052  86.9167  28.2430 15.80835509    12"
                    ]
                },
                {
                    "noradId": "68556",
                    "tle": [
                        "1 68556C 26070Q   26114.97756944  .00047348  00000+0  23964-3 0  1141",
                        "2 68556  53.1581 152.2763 0001064  85.4709  10.2370 15.80827122    15"
                    ]
                },
                {
                    "noradId": "68555",
                    "tle": [
                        "1 68555C 26070P   26114.99909722  .00003430  00000+0  17295-4 0  1141",
                        "2 68555  53.1581 152.2038 0001093 108.9408  92.1370 15.80931448    14"
                    ]
                },
                {
                    "noradId": "68554",
                    "tle": [
                        "1 68554C 26070N   26114.91368056 -.00002594  00000+0 -13132-4 0  1149",
                        "2 68554  53.1583 152.6146 0000906  90.0941 353.2567 15.80848890    11"
                    ]
                },
                {
                    "noradId": "68553",
                    "tle": [
                        "1 68553C 26070M   26114.96298611  .00032237  00000+0  16319-3 0  1146",
                        "2 68553  53.1581 152.3756 0001131 107.8092 252.0423 15.80831144    18"
                    ]
                },
                {
                    "noradId": "68552",
                    "tle": [
                        "1 68552C 26070L   26114.94493056 -.00020275  00000+0 -10262-3 0  1145",
                        "2 68552  53.1583 152.5020 0001073  90.2230 149.7165 15.80861189    16"
                    ]
                },
                {
                    "noradId": "68551",
                    "tle": [
                        "1 68551C 26070K   26114.96715278  .00061997  00000+0  31375-3 0  1141",
                        "2 68551  53.1581 152.3728 0001168  98.4482 276.5851 15.80821983    19"
                    ]
                },
                {
                    "noradId": "68550",
                    "tle": [
                        "1 68550C 26070J   26114.99076389  .00032563  00000+0  16480-3 0  1143",
                        "2 68550  53.1580 152.2633 0001215  98.9355  46.2769 15.80835263    14"
                    ]
                },
                {
                    "noradId": "68549",
                    "tle": [
                        "1 68549C 26070H   26114.95743056  .00041430  00000+0  20968-3 0  1148",
                        "2 68549  53.1581 152.4483 0001158  80.7557 226.0971 15.80830673    10"
                    ]
                },
                {
                    "noradId": "68547",
                    "tle": [
                        "1 68547C 26070F   26114.99145833 -.00138730  00000+0 -70228-3 0  1145",
                        "2 68547  53.1580 152.2864 0001379  99.3790  36.9771 15.80915999    19"
                    ]
                },
                {
                    "noradId": "68548",
                    "tle": [
                        "1 68548C 26070G   26114.97409722 -.00056829  00000+0 -28696-3 0  1144",
                        "2 68548  53.1582 152.3824 0001062  92.2878 300.9650 15.80929589    17"
                    ]
                },
                {
                    "noradId": "68545",
                    "tle": [
                        "1 68545C 26070D   26114.96368056  .00078503  00000+0  39537-3 0  1141",
                        "2 68545  53.1581 152.4614 0001071  62.7992 258.1534 15.80918312    17"
                    ]
                },
                {
                    "noradId": "68546",
                    "tle": [
                        "1 68546C 26070E   26114.95465278  .00150930  00000+0  76489-3 0  1147",
                        "2 68546  53.1582 152.4887 0001357  59.3233 218.8658 15.80747022    16"
                    ]
                },
                {
                    "noradId": "68544",
                    "tle": [
                        "1 68544C 26070C   26114.94701389  .00349390  00000+0  17694-2 0  1142",
                        "2 68544  53.1582 152.5361 0001293  85.3873 144.9908 15.80663138    12"
                    ]
                },
                {
                    "noradId": "68543",
                    "tle": [
                        "1 68543C 26070B   26114.97618056  .00035417  00000+0  17962-3 0  1143",
                        "2 68543  53.1581 152.4068 0001229 113.2434 274.8443 15.80789562    13"
                    ]
                },
                {
                    "noradId": "68542",
                    "tle": [
                        "1 68542C 26070A   26114.99770833 -.00102870  00000+0 -52338-3 0  1142",
                        "2 68542  53.1580 152.3081 0001661  92.9602  53.4922 15.80786852    17"
                    ]
                }
            ]
        }
    ],
    "config": {}
}